{
  "type": "FeatureCollection",
  "features": [
    {
      "type": "Feature",
      "properties": {
        "norad_id": 59626,
        "name": "LEGION 2",
        "group": "resource",
        "lat": -50.24979247596088,
        "lon": -130.68362695633957,
        "alt_km": 522.579353211765,
        "timestamp": "2025-12-09T16:56:36.238074+00:00",
        "meta_object_name": "LEGION 2",
        "meta_object_id": "2024-081B",
        "meta_epoch": "2025-12-09T11:10:38.260704",
        "meta_mean_motion": 15.16441411,
        "meta_eccentricity": 0.0005829,
        "meta_inclination": 97.5215,
        "meta_ra_of_asc_node": 58.2191,
        "meta_arg_of_pericenter": 307.7092,
        "meta_mean_anomaly": 52.3612,
        "meta_ephemeris_type": 0,
        "meta_classification_type": "U",
        "meta_norad_cat_id": 59626,
        "meta_element_set_no": 999,
        "meta_rev_at_epoch": 8878,
        "meta_bstar": 0.0003691,
        "meta_mean_motion_dot": 7.115e-05,
        "meta_mean_motion_ddot": 0,
        "tle_line1": "1 59626U 24081B   25343.46572061  .00007115  00000+0  36910-3 0  9996",
        "tle_line2": "2 59626  97.5215  58.2191 0005829 307.7092  52.3612 15.16441411 88785"
      },
      "geometry": {
        "type": "Point",
        "coordinates": [
          -130.68362695633957,
          -50.24979247596088
        ]
      }
    },
    {
      "type": "Feature",
      "properties": {
        "norad_id": 60182,
        "name": "ALOS-4 (DAICHI-4)",
        "group": "resource",
        "lat": -67.32811461558053,
        "lon": 98.06944505172154,
        "alt_km": 639.2390434231329,
        "timestamp": "2025-12-09T16:56:36.238086+00:00",
        "meta_object_name": "ALOS-4 (DAICHI-4)",
        "meta_object_id": "2024-123A",
        "meta_epoch": "2025-12-09T12:23:02.184000",
        "meta_mean_motion": 14.7947113,
        "meta_eccentricity": 0.0001438,
        "meta_inclination": 97.9226,
        "meta_ra_of_asc_node": 78.4091,
        "meta_arg_of_pericenter": 102.2481,
        "meta_mean_anomaly": 257.8892,
        "meta_ephemeris_type": 0,
        "meta_classification_type": "U",
        "meta_norad_cat_id": 60182,
        "meta_element_set_no": 999,
        "meta_rev_at_epoch": 7783,
        "meta_bstar": 0.00048813,
        "meta_mean_motion_dot": 3.596e-05,
        "meta_mean_motion_ddot": 0,
        "tle_line1": "1 60182U 24123A   25343.51599750  .00003596  00000+0  48813-3 0  9996",
        "tle_line2": "2 60182  97.9226  78.4091 0001438 102.2481 257.8892 14.79471130 77830"
      },
      "geometry": {
        "type": "Point",
        "coordinates": [
          98.06944505172154,
          -67.32811461558053
        ]
      }
    },
    {
      "type": "Feature",
      "properties": {
        "norad_id": 60452,
        "name": "LEGION 3",
        "group": "resource",
        "lat": -44.05016155320516,
        "lon": -138.14543641680675,
        "alt_km": 520.264930834951,
        "timestamp": "2025-12-09T16:56:36.238098+00:00",
        "meta_object_name": "LEGION 3",
        "meta_object_id": "2024-146A",
        "meta_epoch": "2025-12-09T11:03:30.979008",
        "meta_mean_motion": 15.15708093,
        "meta_eccentricity": 0.0014518,
        "meta_inclination": 45.0025,
        "meta_ra_of_asc_node": 327.7103,
        "meta_arg_of_pericenter": 180.8682,
        "meta_mean_anomaly": 179.2173,
        "meta_ephemeris_type": 0,
        "meta_classification_type": "U",
        "meta_norad_cat_id": 60452,
        "meta_element_set_no": 999,
        "meta_rev_at_epoch": 7323,
        "meta_bstar": 0.00041993,
        "meta_mean_motion_dot": 7.898e-05,
        "meta_mean_motion_ddot": 0,
        "tle_line1": "1 60452U 24146A   25343.46077522  .00007898  00000+0  41993-3 0  9994",
        "tle_line2": "2 60452  45.0025 327.7103 0014518 180.8682 179.2173 15.15708093 73234"
      },
      "geometry": {
        "type": "Point",
        "coordinates": [
          -138.14543641680675,
          -44.05016155320516
        ]
      }
    },
    {
      "type": "Feature",
      "properties": {
        "norad_id": 60453,
        "name": "LEGION 4",
        "group": "resource",
        "lat": -43.22520230598346,
        "lon": -51.93179070079492,
        "alt_km": 517.0938090808859,
        "timestamp": "2025-12-09T16:56:36.238109+00:00",
        "meta_object_name": "LEGION 4",
        "meta_object_id": "2024-146B",
        "meta_epoch": "2025-12-09T12:39:25.394400",
        "meta_mean_motion": 15.15772337,
        "meta_eccentricity": 0.0009759,
        "meta_inclination": 45.0385,
        "meta_ra_of_asc_node": 59.0945,
        "meta_arg_of_pericenter": 294.4297,
        "meta_mean_anomaly": 65.5563,
        "meta_ephemeris_type": 0,
        "meta_classification_type": "U",
        "meta_norad_cat_id": 60453,
        "meta_element_set_no": 999,
        "meta_rev_at_epoch": 7209,
        "meta_bstar": 0.00042457,
        "meta_mean_motion_dot": 7.992e-05,
        "meta_mean_motion_ddot": 0,
        "tle_line1": "1 60453U 24146B   25343.52737725  .00007992  00000+0  42457-3 0  9991",
        "tle_line2": "2 60453  45.0385  59.0945 0009759 294.4297  65.5563 15.15772337 72093"
      },
      "geometry": {
        "type": "Point",
        "coordinates": [
          -51.93179070079492,
          -43.22520230598346
        ]
      }
    },
    {
      "type": "Feature",
      "properties": {
        "norad_id": 60989,
        "name": "SENTINEL-2C",
        "group": "resource",
        "lat": -45.1715608946957,
        "lon": -132.491938903054,
        "alt_km": 796.2369080247008,
        "timestamp": "2025-12-09T16:56:36.238120+00:00",
        "meta_object_name": "SENTINEL-2C",
        "meta_object_id": "2024-157A",
        "meta_epoch": "2025-12-09T10:51:24.113088",
        "meta_mean_motion": 14.30815888,
        "meta_eccentricity": 0.0001194,
        "meta_inclination": 98.5685,
        "meta_ra_of_asc_node": 55.9822,
        "meta_arg_of_pericenter": 97.8773,
        "meta_mean_anomaly": 262.2545,
        "meta_ephemeris_type": 0,
        "meta_classification_type": "U",
        "meta_norad_cat_id": 60989,
        "meta_element_set_no": 999,
        "meta_rev_at_epoch": 6585,
        "meta_bstar": 0.00014031,
        "meta_mean_motion_dot": 3.24e-06,
        "meta_mean_motion_ddot": 0,
        "tle_line1": "1 60989U 24157A   25343.45236242  .00000324  00000+0  14031-3 0  9996",
        "tle_line2": "2 60989  98.5685  55.9822 0001194  97.8773 262.2545 14.30815888 65858"
      },
      "geometry": {
        "type": "Point",
        "coordinates": [
          -132.491938903054,
          -45.1715608946957
        ]
      }
    },
    {
      "type": "Feature",
      "properties": {
        "norad_id": 61735,
        "name": "IONOSFERA-M 1",
        "group": "resource",
        "lat": -39.96326947189125,
        "lon": 26.169424563384336,
        "alt_km": 823.4288252255492,
        "timestamp": "2025-12-09T16:56:36.238131+00:00",
        "meta_object_name": "IONOSFERA-M 1",
        "meta_object_id": "2024-199A",
        "meta_epoch": "2025-12-09T12:32:04.940160",
        "meta_mean_motion": 14.22713059,
        "meta_eccentricity": 0.0001112,
        "meta_inclination": 98.7412,
        "meta_ra_of_asc_node": 213.3951,
        "meta_arg_of_pericenter": 26.2278,
        "meta_mean_anomaly": 333.8956,
        "meta_ephemeris_type": 0,
        "meta_classification_type": "U",
        "meta_norad_cat_id": 61735,
        "meta_element_set_no": 999,
        "meta_rev_at_epoch": 10073,
        "meta_bstar": 8.6808e-05,
        "meta_mean_motion_dot": 1.5e-06,
        "meta_mean_motion_ddot": 0,
        "tle_line1": "1 61735U 24199A   25343.52227940  .00000150  00000+0  86808-4 0  9994",
        "tle_line2": "2 61735  98.7412 213.3951 0001112  26.2278 333.8956 14.22713059100733"
      },
      "geometry": {
        "type": "Point",
        "coordinates": [
          26.169424563384336,
          -39.96326947189125
        ]
      }
    },
    {
      "type": "Feature",
      "properties": {
        "norad_id": 61736,
        "name": "IONOSFERA-M 2",
        "group": "resource",
        "lat": 42.36292422475261,
        "lon": -154.57502610555713,
        "alt_km": 812.3009349756512,
        "timestamp": "2025-12-09T16:56:36.238141+00:00",
        "meta_object_name": "IONOSFERA-M 2",
        "meta_object_id": "2024-199B",
        "meta_epoch": "2025-12-09T13:21:58.757184",
        "meta_mean_motion": 14.22715238,
        "meta_eccentricity": 0.0001574,
        "meta_inclination": 98.7404,
        "meta_ra_of_asc_node": 213.342,
        "meta_arg_of_pericenter": 114.2993,
        "meta_mean_anomaly": 245.8349,
        "meta_ephemeris_type": 0,
        "meta_classification_type": "U",
        "meta_norad_cat_id": 61736,
        "meta_element_set_no": 999,
        "meta_rev_at_epoch": 10386,
        "meta_bstar": 8.5672e-05,
        "meta_mean_motion_dot": 1.48e-06,
        "meta_mean_motion_ddot": 0,
        "tle_line1": "1 61736U 24199B   25343.55693006  .00000148  00000+0  85672-4 0  9993",
        "tle_line2": "2 61736  98.7404 213.3420 0001574 114.2993 245.8349 14.22715238103866"
      },
      "geometry": {
        "type": "Point",
        "coordinates": [
          -154.57502610555713,
          42.36292422475261
        ]
      }
    }
  ]
}